{"type": "FeatureCollection", "features": [ {"type": "Feature", "properties": {"norad_id": 43010, "name": "FENGYUN 3D", "group": "weather", "lat": -15.19798790549682, "lon": 122.03951205675435, "alt_km": 830.6779402003895, "timestamp": "2025-12-04T07:39:35.817187+00:00", "meta": {"OBJECT_NAME": "FENGYUN 3D", "OBJECT_ID": "2017-072A", "EPOCH": "2025-12-03T22:17:08.265696", "MEAN_MOTION": 14.19679779, "ECCENTRICITY": 6.186e-05, "INCLINATION": 98.9881, "RA_OF_ASC_NODE": 304.1074, "ARG_OF_PERICENTER": 217.9718, "MEAN_ANOMALY": 142.1414, "EPHEMERIS_TYPE": 0, "CLASSIFICATION_TYPE": "U", "NORAD_CAT_ID": 43010, "ELEMENT_SET_NO": 999, "REV_AT_EPOCH": 41728, "BSTAR": 0.00011890582, "MEAN_MOTION_DOT": 2.05e-06, "MEAN_MOTION_DDOT": 0}, "tle": {"line1": "1 43010U 17072A   25337.92856789  .00000205  00000+0  11891-3 0  9998", "line2": "2 43010  98.9881 304.1074 0000618 217.9718 142.1414 14.19679779417281"}}, "geometry": {"type": "Point", "coordinates": [122.03951205675435, -15.19798790549682]}}, {"type": "Feature", "properties": {"norad_id": 43013, "name": "NOAA 20 (JPSS-1)", "group": "weather", "lat": -7.484391122608463, "lon": -84.13098358352053, "alt_km": 831.2204015004672, "timestamp": "2025-12-04T07:39:35.817196+00:00", "meta": {"OBJECT_NAME": "NOAA 20 (JPSS-1)", "OBJECT_ID": "2017-073A", "EPOCH": "2025-12-03T21:32:44.052576", "MEAN_MOTION": 14.19522088, "ECCENTRICITY": 0.00020632, "INCLINATION": 98.7586, "RA_OF_ASC_NODE": 274.2918, "ARG_OF_PERICENTER": 100.0352, "MEAN_ANOMALY": 260.1057, "EPHEMERIS_TYPE": 0, "CLASSIFICATION_TYPE": "U", "NORAD_CAT_ID": 43013, "ELEMENT_SET_NO": 999, "REV_AT_EPOCH": 41676, "BSTAR": 0.00010393138, "MEAN_MOTION_DOT": 1.75e-06, "MEAN_MOTION_DDOT": 0}, "tle": {"line1": "1 43013U 17073A   25337.89773209  .00000175  00000+0  10393-3 0  9995", "line2": "2 43013  98.7586 274.2918 0002063 100.0352 260.1057 14.19522088416766"}}, "geometry": {"type": "Point", "coordinates": [-84.13098358352053, -7.484391122608463]}}, {"type": "Feature", "properties": {"norad_id": 43226, "name": "GOES 17", "group": "weather", "lat": 0.09095103349831571, "lon": 98.76680940503135, "alt_km": 35800.583266745896, "timestamp": "2025-12-04T07:39:35.817207+00:00", "meta": {"OBJECT_NAME": "GOES 17", "OBJECT_ID": "2018-022A", "EPOCH": "2025-12-03T13:19:45.670080", "MEAN_MOTION": 1.00271328, "ECCENTRICITY": 0.00034226, "INCLINATION": 0.4342, "RA_OF_ASC_NODE": 89.3189, "ARG_OF_PERICENTER": 181.5531, "MEAN_ANOMALY": 272.2117, "EPHEMERIS_TYPE": 0, "CLASSIFICATION_TYPE": "U", "NORAD_CAT_ID": 43226, "ELEMENT_SET_NO": 999, "REV_AT_EPOCH": 2846, "BSTAR": 0, "MEAN_MOTION_DOT": -1.65e-06, "MEAN_MOTION_DDOT": 0}, "tle": {"line1": "1 43226U 18022A   25337.55538970 -.00000165  00000+0  00000+0 0  9993", "line2": "2 43226   0.4342  89.3189 0003422 181.5531 272.2117  1.00271328 28461"}}, "geometry": {"type": "Point", "coordinates": [98.76680940503135, 0.09095103349831571]}}, {"type": "Feature", "properties": {"norad_id": 43491, "name": "FENGYUN 2H", "group": "weather", "lat": -0.29750144500150566, "lon": -92.35667649451872, "alt_km": 35774.88263494039, "timestamp": "2025-12-04T07:39:35.817226+00:00", "meta": {"OBJECT_NAME": "FENGYUN 2H", "OBJECT_ID": "2018-050A", "EPOCH": "2025-12-03T20:13:37.295328", "MEAN_MOTION": 1.00271361, "ECCENTRICITY": 0.00029221, "INCLINATION": 2.5261, "RA_OF_ASC_NODE": 81.4292, "ARG_OF_PERICENTER": 162.7976, "MEAN_ANOMALY": 211.4639, "EPHEMERIS_TYPE": 0, "CLASSIFICATION_TYPE": "U", "NORAD_CAT_ID": 43491, "ELEMENT_SET_NO": 999, "REV_AT_EPOCH": 2748, "BSTAR": 0, "MEAN_MOTION_DOT": -1.14e-06, "MEAN_MOTION_DDOT": 0}, "tle": {"line1": "1 43491U 18050A   25337.84279277 -.00000114  00000+0  00000+0 0  9996", "line2": "2 43491   2.5261  81.4292 0002922 162.7976 211.4639  1.00271361 27486"}}, "geometry": {"type": "Point", "coordinates": [-92.35667649451872, -0.29750144500150566]}}, {"type": "Feature", "properties": {"norad_id": 43689, "name": "METOP-C", "group": "weather", "lat": 71.58520230266187, "lon": 8.856894235673032, "alt_km": 812.1774718459365, "timestamp": "2025-12-04T07:39:35.817236+00:00", "meta": {"OBJECT_NAME": "METOP-C", "OBJECT_ID": "2018-087A", "EPOCH": "2025-12-03T22:52:05.099520", "MEAN_MOTION": 14.21506812, "ECCENTRICITY": 0.00016849, "INCLINATION": 98.6942, "RA_OF_ASC_NODE": 35.8565, "ARG_OF_PERICENTER": 56.6673, "MEAN_ANOMALY": 303.4666, "EPHEMERIS_TYPE": 0, "CLASSIFICATION_TYPE": "U", "NORAD_CAT_ID": 43689, "ELEMENT_SET_NO": 999, "REV_AT_EPOCH": 36709, "BSTAR": 0.00015816239, "MEAN_MOTION_DOT": 3.02e-06, "MEAN_MOTION_DDOT": 0}, "tle": {"line1": "1 43689U 18087A   25337.95283680  .00000302  00000+0  15816-3 0  9993", "line2": "2 43689  98.6942  35.8565 0001684  56.6673 303.4666 14.21506812367097"}}, "geometry": {"type": "Point", "coordinates": [8.856894235673032, 71.58520230266187]}}, {"type": "Feature", "properties": {"norad_id": 43823, "name": "GEO-KOMPSAT-2A", "group": "weather", "lat": -0.029815215549832283, "lon": -43.46480679857954, "alt_km": 35787.13398446429, "timestamp": "2025-12-04T07:39:35.817246+00:00", "meta": {"OBJECT_NAME": "GEO-KOMPSAT-2A", "OBJECT_ID": "2018-100A", "EPOCH": "2025-12-03T17:35:40.686720", "MEAN_MOTION": 1.00269729, "ECCENTRICITY": 5.41e-05, "INCLINATION": 0.0596, "RA_OF_ASC_NODE": 121.241, "ARG_OF_PERICENTER": 95.287, "MEAN_ANOMALY": 248.4703, "EPHEMERIS_TYPE": 0, "CLASSIFICATION_TYPE": "U", "NORAD_CAT_ID": 43823, "ELEMENT_SET_NO": 999, "REV_AT_EPOCH": 2567, "BSTAR": 0, "MEAN_MOTION_DOT": -3.26e-06, "MEAN_MOTION_DDOT": 0}, "tle": {"line1": "1 43823U 18100A   25337.73310980 -.00000326  00000+0  00000+0 0  9991", "line2": "2 43823   0.0596 121.2410 0000541  95.2870 248.4703  1.00269729 25678"}}, "geometry": {"type": "Point", "coordinates": [-43.46480679857954, -0.029815215549832283]}}, {"type": "Feature", "properties": {"norad_id": 44387, "name": "METEOR-M2 2", "group": "weather", "lat": 61.901641543372875, "lon": -59.11426643473385, "alt_km": 804.9657675033359, "timestamp": "2025-12-04T07:39:35.817257+00:00", "meta": {"OBJECT_NAME": "METEOR-M2 2", "OBJECT_ID": "2019-038A", "EPOCH": "2025-12-03T22:56:02.581152", "MEAN_MOTION": 14.24285808, "ECCENTRICITY": 9.059e-05, "INCLINATION": 98.8964, "RA_OF_ASC_NODE": 317.5773, "ARG_OF_PERICENTER": 166.4796, "MEAN_ANOMALY": 193.6407, "EPHEMERIS_TYPE": 0, "CLASSIFICATION_TYPE": "U", "NORAD_CAT_ID": 44387, "ELEMENT_SET_NO": 999, "REV_AT_EPOCH": 33350, "BSTAR": 0.00016991625, "MEAN_MOTION_DOT": 3.46e-06, "MEAN_MOTION_DDOT": 0}, "tle": {"line1": "1 44387U 19038A   25337.95558543  .00000346  00000+0  16992-3 0  9993", "line2": "2 44387  98.8964 317.5773 0000905 166.4796 193.6407 14.24285808333504"}}, "geometry": {"type": "Point", "coordinates": [-59.11426643473385, 61.901641543372875]}}, {"type": "Feature", "properties": {"norad_id": 47719, "name": "ARKTIKA-M 1", "group": "weather", "lat": 63.046508276844634, "lon": 168.8716716730801, "alt_km": 39194.801682568606, "timestamp": "2025-12-04T07:39:35.817269+00:00", "meta": {"OBJECT_NAME": "ARKTIKA-M 1", "OBJECT_ID": "2021-016A", "EPOCH": "2025-12-01T02:41:41.634816", "MEAN_MOTION": 2.00613156, "ECCENTRICITY": 0.71974708, "INCLINATION": 63.1756, "RA_OF_ASC_NODE": 85.6045, "ARG_OF_PERICENTER": 269.084, "MEAN_ANOMALY": 15.7076, "EPHEMERIS_TYPE": 0, "CLASSIFICATION_TYPE": "U", "NORAD_CAT_ID": 47719, "ELEMENT_SET_NO": 999, "REV_AT_EPOCH": 3481, "BSTAR": 0, "MEAN_MOTION_DOT": -1.2e-07, "MEAN_MOTION_DDOT": 0}, "tle": {"line1": "1 47719U 21016A   25335.11228744 -.00000012  00000+0  00000+0 0  9997", "line2": "2 47719  63.1756  85.6045 7197470 269.0840  15.7076  2.00613156 34816"}}, "geometry": {"type": "Point", "coordinates": [168.8716716730801, 63.046508276844634]}}, {"type": "Feature", "properties": {"norad_id": 49008, "name": "FENGYUN 3E", "group": "weather", "lat": 23.41306497482574, "lon": 162.76299805348324, "alt_km": 825.7364741150323, "timestamp": "2025-12-04T07:39:35.817280+00:00", "meta": {"OBJECT_NAME": "FENGYUN 3E", "OBJECT_ID": "2021-062A", "EPOCH": "2025-12-03T22:28:13.847232", "MEAN_MOTION": 14.19878233, "ECCENTRICITY": 7.384e-05, "INCLINATION": 98.7476, "RA_OF_ASC_NODE": 338.5619, "ARG_OF_PERICENTER": 322.2311, "MEAN_ANOMALY": 37.8814, "EPHEMERIS_TYPE": 0, "CLASSIFICATION_TYPE": "U", "NORAD_CAT_ID": 49008, "ELEMENT_SET_NO": 999, "REV_AT_EPOCH": 22887, "BSTAR": 5.6923169e-05, "MEAN_MOTION_DOT": 7.7e-07, "MEAN_MOTION_DDOT": 0}, "tle": {"line1": "1 49008U 21062A   25337.93627138  .00000077  00000+0  56923-4 0  9993", "line2": "2 49008  98.7476 338.5619 0000738 322.2311  37.8814 14.19878233228875"}}, "geometry": {"type": "Point", "coordinates": [162.76299805348324, 23.41306497482574]}}, {"type": "Feature", "properties": {"norad_id": 51850, "name": "GOES 18", "group": "weather", "lat": -0.0014293729694866142, "lon": 51.274775832171855, "alt_km": 35788.132531126634, "timestamp": "2025-12-04T07:39:35.817290+00:00", "meta": {"OBJECT_NAME": "GOES 18", "OBJECT_ID": "2022-021A", "EPOCH": "2025-12-03T16:30:38.739168", "MEAN_MOTION": 1.00270453, "ECCENTRICITY": 7.983e-05, "INCLINATION": 0.0031, "RA_OF_ASC_NODE": 64.4496, "ARG_OF_PERICENTER": 225.9944, "MEAN_ANOMALY": 252.9877, "EPHEMERIS_TYPE": 0, "CLASSIFICATION_TYPE": "U", "NORAD_CAT_ID": 51850, "ELEMENT_SET_NO": 999, "REV_AT_EPOCH": 463, "BSTAR": 0, "MEAN_MOTION_DOT": 1.14e-06, "MEAN_MOTION_DDOT": 0}, "tle": {"line1": "1 51850U 22021A   25337.68794837  .00000114  00000+0  00000+0 0  9992", "line2": "2 51850   0.0031  64.4496 0000798 225.9944 252.9877  1.00270453  4632"}}, "geometry": {"type": "Point", "coordinates": [51.274775832171855, -0.0014293729694866142]}}]}